{"fetched_at":"2026-03-30T06:02:59Z","count":15439,"tles":[{"name":"STARLINK-35906","line1":"1 67112U 25299L   26087.65451426  .00024304  00000+0  88922-3 0  9994","line2":"2 67112  43.0041  62.1530 0001714 283.1835  76.8825 15.27601760 16010","category":"Starlink"}]}